     2.11           N: GPS NAV DATA                         RINEX VERSION / TYPE
teqc  2019Feb25                         20221121 12:27:28UTCPGM / RUN BY / DATE
OSX ker:10.11.6|Core i5|gcc 4.3 -m64|OSX ker:10.10+|=+      COMMENT
    8.3819D-09  1.4901D-08 -5.9605D-08 -5.9605D-08          ION ALPHA
    8.3968D+04  1.6384D+04 -1.3107D+05 -6.5536D+04          ION BETA
    9.313225746155D-10 2.664535259100D-15   147456     1550 DELTA-UTC: A0,A1,T,W
                                                            END OF HEADER
27 09  9 20 10  0  0.0 8.428981527686D-05 3.183231456205D-12 0.000000000000D+00
    2.200000000000D+01 2.153125000000D+01 3.993737783781D-09-2.329276001706D+00
    1.201406121254D-06 2.135627460666D-02 1.213699579239D-05 5.153743478775D+03
    3.600000000000D+04 2.291053533554D-07 5.595843874273D-01 2.142041921616D-07
    9.758863371716D-01 1.442812500000D+02-1.544378444487D+00-7.359592270845D-09
    5.818099490054D-10 1.000000000000D+00 1.550000000000D+03 0.000000000000D+00
    2.000000000000D+00 0.000000000000D+00-4.190951585770D-09 2.200000000000D+01
    2.881800000000D+04 4.000000000000D+00
28 09  9 20 10  0  0.0-2.613430842757D-05 1.136868377216D-13 0.000000000000D+00
    7.100000000000D+01 3.125000000000D-01 4.900204113170D-09-1.378732541973D+00
    1.098960638046D-07 1.509143155999D-02 3.771856427193D-06 5.153642225266D+03
    3.600000000000D+04 3.036111593246D-07 1.695197101729D+00 2.663582563400D-07
    9.673018168490D-01 3.103125000000D+02-2.017194392792D+00-8.327489730516D-09
   -1.100045821324D-10 1.000000000000D+00 1.550000000000D+03 0.000000000000D+00
    2.000000000000D+00 0.000000000000D+00-1.024454832077D-08 7.100000000000D+01
    2.881800000000D+04 4.000000000000D+00
26 09  9 20 10  0  0.0 6.228080019355D-05-1.023181539495D-12 0.000000000000D+00
    1.060000000000D+02-1.020937500000D+02 3.964450849577D-09 1.015600181584D+00
   -5.200505256653D-06 1.969880156685D-02 9.590759873390D-06 5.153608724594D+03
    3.600000000000D+04-2.570450305939D-07-3.718865016741D-01 6.705522537231D-08
    9.924360017087D-01 2.194062500000D+02 1.027863532722D+00-8.042120700893D-09
   -4.982350392035D-10 1.000000000000D+00 1.550000000000D+03 0.000000000000D+00
    2.000000000000D+00 0.000000000000D+00-6.053596735001D-09 1.060000000000D+02
    2.881800000000D+04 4.000000000000D+00
14 09  9 20 10  0  0.0-4.843994975090D-05 5.229594535194D-12 0.000000000000D+00
    8.000000000000D+01-1.106875000000D+02 3.940164123651D-09-2.431942394379D+00
   -5.733221769333D-06 4.932988551445D-03 8.875504136086D-06 5.153650110245D+03
    3.600000000000D+04 1.061707735062D-07-3.895142666155D-01-4.656612873077D-08
    9.880481749610D-01 2.213750000000D+02-2.155426702677D+00-7.750322832055D-09
   -2.846547141543D-10 1.000000000000D+00 1.550000000000D+03 0.000000000000D+00
    2.000000000000D+00 0.000000000000D+00-8.847564458847D-09 8.000000000000D+01
    2.881800000000D+04 4.000000000000D+00
11 09  9 20 10  0  0.0-2.049421891570D-05-1.818989403546D-12 0.000000000000D+00
    2.900000000000D+01 7.459375000000D+01 5.783098032103D-09 1.442099572961D+00
    3.915280103683D-06 9.868077468127D-03 1.188926398754D-05 5.153710145950D+03
    3.600000000000D+04-1.490116119385D-07-2.745474542160D+00 5.215406417847D-08
    8.894980651076D-01 1.134062500000D+02 7.271222248393D-01-8.715005872119D-09
    5.000208278745D-12 1.000000000000D+00 1.550000000000D+03 0.000000000000D+00
    2.000000000000D+00 0.000000000000D+00-1.164153218269D-08 2.900000000000D+01
    2.950800000000D+04 4.000000000000D+00
17 09  9 20 10  0  0.0 8.642952889204D-05 3.069544618484D-12 0.000000000000D+00
    6.900000000000D+01-4.815625000000D+01 4.329823211659D-09-1.934840282641D+00
   -2.371147274971D-06 4.661219660193D-03 1.070089638233D-05 5.153737390518D+03
    3.600000000000D+04 7.450580596924D-09 2.729996529485D+00-7.264316082001D-08
    9.602311314695D-01 1.741562500000D+02-2.643011075243D+00-7.848898366693D-09
   -5.650235354982D-10 1.000000000000D+00 1.550000000000D+03 0.000000000000D+00
    2.000000000000D+00 0.000000000000D+00-1.024454832077D-08 6.900000000000D+01
    2.989800000000D+04 4.000000000000D+00
12 09  9 20  9 59 44.0-2.162153832614D-04 5.684341886081D-12 0.000000000000D+00
    4.000000000000D+00 1.043750000000D+01 4.951991984629D-09 1.608346822581D+00
    5.308538675308D-07 3.078282112256D-03 3.881752490997D-06 5.153560892105D+03
    3.598400000000D+04 4.470348358154D-08 1.670025988429D+00 2.048909664154D-08
    9.677058499529D-01 3.046875000000D+02-5.869712642463D-01-8.333561411997D-09
   -1.821504444400D-11 1.000000000000D+00 1.550000000000D+03 0.000000000000D+00
    2.000000000000D+00 0.000000000000D+00-1.164153218269D-08 4.000000000000D+00
    3.019800000000D+04 4.000000000000D+00
30 09  9 20 10  0  0.0 1.784311607480D-04 3.183231456205D-12 0.000000000000D+00
    7.700000000000D+01 1.825000000000D+01 5.367009271765D-09-8.955295827217D-01
    1.046806573868D-06 1.192338275723D-02 4.183501005173D-06 5.153659629822D+03
    3.600000000000D+04-1.732259988785D-07 1.620381626416D+00 1.322478055954D-07
    9.528326120000D-01 2.943437500000D+02 1.455437744641D+00-8.737863967107D-09
    7.678891285216D-11 1.000000000000D+00 1.550000000000D+03 0.000000000000D+00
    2.000000000000D+00 0.000000000000D+00-7.916241884232D-09 7.700000000000D+01
    3.328800000000D+04 4.000000000000D+00
32 09  9 20 10  0  0.0 1.931479200721D-04-7.162270776462D-12 0.000000000000D+00
    8.300000000000D+01 1.006250000000D+01 4.878417491384D-09 2.321878292694D+00
    3.129243850708D-07 1.326943270396D-02 1.272186636925D-06 5.153714138031D+03
    3.600000000000D+04 2.197921276093D-07-1.392366755607D+00 1.676380634308D-08
    9.620157964365D-01 3.562812500000D+02-1.116300764922D+00-8.375348866898D-09
   -3.178703834345D-11 1.000000000000D+00 1.550000000000D+03 0.000000000000D+00
    2.000000000000D+00 0.000000000000D+00-3.259629011154D-09 8.300000000000D+01
    3.415800000000D+04 4.000000000000D+00
 9 09  9 20 12  0  0.0 7.852260023355D-05 2.046363078989D-12 0.000000000000D+00
    1.290000000000D+02 1.087500000000D+01 4.058740491404D-09 1.727418118195D+00
    3.110617399216D-07 2.066788240336D-02 1.271627843380D-05 5.153629396439D+03
    4.320000000000D+04 8.754432201386D-08 5.838234946377D-01-4.731118679047D-07
    9.778291626010D-01 1.396875000000D+02 1.513565131183D+00-7.589244693933D-09
    5.425225982439D-10 1.000000000000D+00 1.550000000000D+03 0.000000000000D+00
    4.000000000000D+00 0.000000000000D+00-5.587935447693D-09 1.290000000000D+02
    3.601800000000D+04 4.000000000000D+00
22 09  9 20 12  0  0.0 1.905784010887D-04-1.023181539495D-12 0.000000000000D+00
    4.000000000000D+01 2.940625000000D+01 5.491300163265D-09-5.742633527851D-01
    1.605600118637D-06 5.341295385733D-03 1.501291990280D-06 5.153656675339D+03
    4.320000000000D+04-7.636845111847D-08-1.445144813956D+00 8.568167686462D-08
    9.379751633219D-01 3.404375000000D+02-1.886663435196D+00-8.958587446840D-09
    2.071514858337D-10 1.000000000000D+00 1.550000000000D+03 0.000000000000D+00
    2.000000000000D+00 0.000000000000D+00-1.769512891769D-08 4.000000000000D+01
    3.601800000000D+04 4.000000000000D+00
27 09  9 20 12  0  0.0 8.431263267994D-05 3.183231456205D-12 0.000000000000D+00
    2.300000000000D+01 2.996875000000D+01 4.116242886610D-09-1.279146725618D+00
    1.877546310425D-06 2.135687798727D-02 1.278519630432D-05 5.153742958069D+03
    4.320000000000D+04-2.887099981308D-07 5.595303662514D-01 4.861503839493D-07
    9.758877942380D-01 1.464375000000D+02-1.544372371914D+00-7.905686446430D-09
    5.110927176346D-10 1.000000000000D+00 1.550000000000D+03 0.000000000000D+00
    2.000000000000D+00 0.000000000000D+00-4.190951585770D-09 2.300000000000D+01
    3.601800000000D+04 4.000000000000D+00
26 09  9 20 12  0  0.0 6.227288395166D-05-1.023181539495D-12 0.000000000000D+00
    1.070000000000D+02-1.266562500000D+02 3.729441060476D-09 2.065653115292D+00
   -6.699934601784D-06 1.969949854538D-02 9.261071681976D-06 5.153614715576D+03
    4.320000000000D+04-1.415610313416D-07-3.719444463963D-01-4.153698682785D-07
    9.924347070262D-01 2.213437500000D+02 1.028024437619D+00-7.634246568441D-09
   -3.239420649158D-10 1.000000000000D+00 1.550000000000D+03 0.000000000000D+00
    2.000000000000D+00 0.000000000000D+00-6.053596735001D-09 1.070000000000D+02
    3.601800000000D+04 4.000000000000D+00
14 09  9 20 12  0  0.0-4.840269684792D-05 5.229594535194D-12 0.000000000000D+00
    1.510000000000D+02-1.140625000000D+02 3.924806341081D-09-1.381669461199D+00
   -5.764886736870D-06 4.933024174534D-03 8.769333362579D-06 5.153650793076D+03
    4.320000000000D+04 1.322478055954D-07-3.895699423518D-01 5.587935447693D-08
    9.880459381592D-01 2.230000000000D+02-2.155508687532D+00-7.804253649919D-09
   -3.103700710164D-10 1.000000000000D+00 1.550000000000D+03 0.000000000000D+00
    2.000000000000D+00 0.000000000000D+00-8.847564458847D-09 1.510000000000D+02
    3.601800000000D+04 4.000000000000D+00
12 09  9 20 12  0  0.0-2.161748707294D-04 5.684341886081D-12 0.000000000000D+00
    5.000000000000D+00 1.040625000000D+01 4.973778606415D-09 2.660909733114D+00
    5.494803190231D-07 3.078232170083D-03 4.038214683533D-06 5.153561061859D+03
    4.320000000000D+04 3.725290298462D-09 1.669965556746D+00 9.872019290924D-08
    9.677058967663D-01 3.040937500000D+02-5.869470631926D-01-8.322132364503D-09
    4.500187450871D-11 1.000000000000D+00 1.550000000000D+03 0.000000000000D+00
    2.000000000000D+00 0.000000000000D+00-1.164153218269D-08 5.000000000000D+00
    3.601800000000D+04 4.000000000000D+00
